NORAD_CAT_ID,OBJECT_NAME,OBJECT_TYPE,EPOCH,MEAN_MOTION,ECCENTRICITY,INCLINATION,RA_OF_ASC_NODE,ARG_OF_PERICENTER,MEAN_ANOMALY,BSTAR,MEAN_MOTION_DOT,MEAN_MOTION_DDOT,TLE_LINE0,TLE_LINE1,TLE_LINE2,SEMIMAJOR_AXIS,PERIOD,APOGEE,PERIGEE,DECAYED
54809.0,STARLINK-5414,PAYLOAD,2024-01-26 22:02:29,15.08854426,0.0001379,53.2152,257.7769,129.5633,230.5481,0.00010277,1.349e-05,0.0,0 STARLINK-5414,1 54809U 22175BD  24026.91839760  .00001349  00000-0  10277-3 0  9997,2 54809  53.2152 257.7769 0001379 129.5633 230.5481 15.08854426 61315,6917.836,95.437,540.655,538.747,0.0
54809.0,STARLINK-5414,PAYLOAD,2024-01-27 20:17:53,15.08844115,0.0001339,53.2159,253.6164,116.7862,243.3267,-0.00011684,-2.147e-05,0.0,0 STARLINK-5414,1 54809U 22175BD  24027.84575926 -.00002147  00000-0 -11684-3 0  9993,2 54809  53.2159 253.6164 0001339 116.7862 243.3267 15.08844115 61457,6917.868,95.437,540.659,538.807,0.0
54809.0,STARLINK-5414,PAYLOAD,2024-01-27 21:53:16,15.08845797,0.0001313,53.217,253.3188,118.0561,242.0564,-7.439e-05,-1.472e-05,0.0,0 STARLINK-5414,1 54809U 22175BD  24027.91200216 -.00001472  00000-0 -74390-4 0  9992,2 54809  53.2170 253.3188 0001313 118.0561 242.0564 15.08845797 63620,6917.863,95.437,540.636,538.819,0.0
54809.0,STARLINK-5414,PAYLOAD,2024-01-28 01:04:03,15.08842637,0.0001309,53.2171,252.723,122.6567,237.4551,-4.9308e-05,-1.073e-05,0.0,0 STARLINK-5414,1 54809U 22175BD  24028.04448272 -.00001073  00000-0 -49308-4 0  9991,2 54809  53.2171 252.7230 0001309 122.6567 237.4551 15.08842637 63640,6917.872,95.437,540.643,538.832,0.0
54809.0,STARLINK-5414,PAYLOAD,2024-01-28 20:08:41,15.08836807,0.0001308,53.2171,249.1543,106.5007,253.6129,3.2167e-05,2.24e-06,0.0,0 STARLINK-5414,1 54809U 22175BD  24028.83936481  .00000224  00000-0  32167-4 0  9992,2 54809  53.2171 249.1543 0001308 106.5007 253.6129 15.08836807 61603,6917.89,95.438,540.66,538.85,0.0
54809.0,STARLINK-5414,PAYLOAD,2024-01-30 00:45:37,15.08841854,0.0001271,53.2169,243.8016,107.8363,252.2768,0.000126,1.718e-05,0.0,0 STARLINK-5414,1 54809U 22175BD  24030.03168003  .00001718  00000-0  12600-3 0  9992,2 54809  53.2169 243.8016 0001271 107.8363 252.2768 15.08841854 61785,6917.875,95.437,540.619,538.86,0.0
54809.0,STARLINK-5414,PAYLOAD,2024-01-30 21:25:38,15.08840923,0.0001171,53.2162,239.9353,106.2091,253.903,6.3027e-05,7.15e-06,0.0,0 STARLINK-5414,1 54809U 22175BD  24030.89280254  .00000715  00000-0  63027-4 0  9995,2 54809  53.2162 239.9353 0001171 106.2091 253.9030 15.08840923 64079,6917.878,95.437,540.553,538.932,0.0
54809.0,STARLINK-5414,PAYLOAD,2024-01-30 23:01:01,15.08841544,0.0001167,53.2162,239.6378,104.6455,255.4666,6.7096e-05,7.8e-06,0.0,0 STARLINK-5414,1 54809U 22175BD  24030.95904202  .00000780  00000-0  67096-4 0  9990,2 54809  53.2162 239.6378 0001167 104.6455 255.4666 15.08841544 61927,6917.876,95.437,540.548,538.933,0.0
54809.0,STARLINK-5414,PAYLOAD,2024-01-31 13:19:29,15.08838009,0.0001214,53.2161,236.9622,96.4441,263.6689,4.2736e-05,3.92e-06,0.0,0 STARLINK-5414,1 54809U 22175BD  24031.55520468  .00000392  00000-0  42736-4 0  9998,2 54809  53.2161 236.9622 0001214  96.4441 263.6689 15.08838009 64172,6917.886,95.438,540.591,538.912,0.0
54809.0,STARLINK-5414,PAYLOAD,2024-02-01 13:10:16,15.08838118,0.0001316,53.2162,232.5044,84.2255,275.8887,4.9298e-05,4.97e-06,0.0,0 STARLINK-5414,1 54809U 22175BD  24032.54880535  .00000497  00000-0  49298-4 0  9998,2 54809  53.2162 232.5044 0001316  84.2255 275.8887 15.08838118 64327,6917.886,95.438,540.662,538.841,0.0
54809.0,STARLINK-5414,PAYLOAD,2024-02-01 16:21:03,15.08838875,0.0001254,53.2163,231.9094,87.9307,272.1829,2.7298e-05,1.47e-06,0.0,0 STARLINK-5414,1 54809U 22175BD  24032.68128539  .00000147  00000-0  27298-4 0  9990,2 54809  53.2163 231.9094 0001254  87.9307 272.1829 15.08838875 62183,6917.884,95.438,540.616,538.881,0.0
54809.0,STARLINK-5414,PAYLOAD,2024-02-02 19:22:35,15.08842701,0.0001375,53.2162,226.8534,101.6105,258.5042,7.5047e-05,9.07e-06,0.0,0 STARLINK-5414,1 54809U 22175BD  24033.80736051  .00000907  00000-0  75047-4 0  9998,2 54809  53.2162 226.8534 0001375 101.6105 258.5042 15.08842701 62355,6917.872,95.437,540.688,538.786,0.0
54809.0,STARLINK-5414,PAYLOAD,2024-02-02 22:33:22,15.08843987,0.0001347,53.2159,226.258,101.8207,258.2936,7.9603e-05,9.79e-06,0.0,0 STARLINK-5414,1 54809U 22175BD  24033.93983903  .00000979  00000-0  79603-4 0  9993,2 54809  53.2159 226.2580 0001347 101.8207 258.2936 15.08843987 64538,6917.868,95.437,540.665,538.801,0.0
54809.0,STARLINK-5414,PAYLOAD,2024-02-03 19:13:23,15.08839649,0.0001288,53.2157,222.3908,89.9002,270.2138,2.4737e-05,1.06e-06,0.0,0 STARLINK-5414,1 54809U 22175BD  24034.80096460  .00000106  00000-0  24737-4 0  9993,2 54809  53.2157 222.3908 0001288  89.9002 270.2138 15.08839649 62503,6917.881,95.438,540.637,538.855,0.0
54809.0,STARLINK-5414,PAYLOAD,2024-02-03 22:24:09,15.08838709,0.0001286,53.2158,221.7965,90.188,269.926,1.6619e-05,-2.3e-07,0.0,0 STARLINK-5414,1 54809U 22175BD  24034.93344507 -.00000023  00000-0  16619-4 0  9994,2 54809  53.2158 221.7965 0001286  90.1880 269.9260 15.08838709 64684,6917.884,95.438,540.639,538.86,0.0
54809.0,STARLINK-5414,PAYLOAD,2024-02-04 12:42:37,15.08841287,0.0001262,53.2159,219.1195,89.019,271.0947,3.6877e-05,2.99e-06,0.0,0 STARLINK-5414,1 54809U 22175BD  24035.52960352  .00000299  00000-0  36877-4 0  9994,2 54809  53.2159 219.1195 0001262  89.0190 271.0947 15.08841287 64777,6917.876,95.437,540.614,538.868,0.0
54809.0,STARLINK-5414,PAYLOAD,2024-02-04 17:28:46,15.08843671,0.000125,53.2161,218.2273,88.4015,271.712,5.332e-05,5.61e-06,0.0,0 STARLINK-5414,1 54809U 22175BD  24035.72832128  .00000561  00000-0  53320-4 0  9999,2 54809  53.2161 218.2273 0001250  88.4015 271.7120 15.08843671 64806,6917.869,95.437,540.599,538.869,0.0
54809.0,STARLINK-5414,PAYLOAD,2024-02-05 12:33:25,15.08831657,0.0001405,53.2174,214.6618,93.0223,267.093,-3.2423e-06,-3.4e-06,0.0,0 STARLINK-5414,1 54809U 22175BD  24036.52321227 -.00000340  00000-0 -32423-5 0  9990,2 54809  53.2174 214.6618 0001405  93.0223 267.0930 15.08831657 62769,6917.906,95.438,540.743,538.799,0.0
54809.0,STARLINK-5414,PAYLOAD,2024-02-05 17:19:34,15.08831917,0.0001356,53.2172,213.7697,92.4879,267.6268,-3.8439e-06,-3.49e-06,0.0,0 STARLINK-5414,1 54809U 22175BD  24036.72193277 -.00000349  00000-0 -38439-5 0  9996,2 54809  53.2172 213.7697 0001356  92.4879 267.6268 15.08831917 64951,6917.905,95.438,540.708,538.832,0.0
54809.0,STARLINK-5414,PAYLOAD,2024-02-06 18:45:44,15.08839753,0.0001334,53.2172,209.0138,104.8845,255.2295,3.59e-05,2.83e-06,0.0,0 STARLINK-5414,1 54809U 22175BD  24037.78176968  .00000283  00000-0  35900-4 0  9995,2 54809  53.2172 209.0138 0001334 104.8845 255.2295 15.08839753 62953,6917.881,95.438,540.669,538.823,0.0
54809.0,STARLINK-5414,PAYLOAD,2024-02-07 18:36:31,15.08843079,0.0001176,53.2165,204.5517,93.642,266.4706,0.00013166,1.808e-05,0.0,0 STARLINK-5414,1 54809U 22175BD  24038.77536706  .00001808  00000-0  13166-3 0  9998,2 54809  53.2165 204.5517 0001176  93.6420 266.4706 15.08843079 65268,6917.871,95.437,540.55,538.922,0.0
54809.0,STARLINK-5414,PAYLOAD,2024-02-08 10:30:23,15.08845098,0.00013,53.2169,201.579,82.0224,278.0915,8.3953e-05,1.049e-05,0.0,0 STARLINK-5414,1 54809U 22175BD  24039.43776836  .00001049  00000-0  83953-4 0  9991,2 54809  53.2169 201.5790 0001300  82.0224 278.0915 15.08845098 63201,6917.865,95.437,540.629,538.83,0.0
54809.0,STARLINK-5414,PAYLOAD,2024-02-08 16:51:55,15.08846017,0.0001322,53.2168,200.3889,83.9987,276.1156,8.6717e-05,1.093e-05,0.0,0 STARLINK-5414,1 54809U 22175BD  24039.70272702  .00001093  00000-0  86717-4 0  9994,2 54809  53.2168 200.3889 0001322  83.9987 276.1156 15.08846017 65408,6917.862,95.437,540.642,538.812,0.0
54809.0,STARLINK-5414,PAYLOAD,2024-02-09 10:21:10,15.08844936,0.0001331,53.2164,197.1184,81.9073,278.207,2.8031e-05,1.58e-06,0.0,0 STARLINK-5414,1 54809U 22175BD  24040.43136790  .00000158  00000-0  28031-4 0  9998,2 54809  53.2164 197.1184 0001331  81.9073 278.2070 15.08844936 65517,6917.865,95.437,540.651,538.81,0.0
54809.0,STARLINK-5414,PAYLOAD,2024-02-09 16:42:42,15.08842864,0.0001297,53.2163,195.9282,83.9797,276.1343,7.3535e-06,-1.71e-06,0.0,0 STARLINK-5414,1 54809U 22175BD  24040.69632891 -.00000171  00000-0  73535-5 0  9995,2 54809  53.2163 195.9282 0001297  83.9797 276.1343 15.08842864 63399,6917.872,95.437,540.634,538.839,0.0
54809.0,STARLINK-5414,PAYLOAD,2024-02-10 10:11:57,15.0883674,0.0001371,53.2162,192.6573,83.4706,276.6443,-1.2586e-05,-4.88e-06,0.0,0 STARLINK-5414,1 54809U 22175BD  24041.42497398 -.00000488  00000-0 -12586-4 0  9998,2 54809  53.2162 192.6573 0001371  83.4706 276.6443 15.08836740 63508,6917.89,95.438,540.704,538.807,0.0
54809.0,STARLINK-5414,PAYLOAD,2024-02-10 13:22:43,15.08838001,0.0001343,53.216,192.0627,82.9345,277.18,-9.645e-08,-2.89e-06,0.0,0 STARLINK-5414,1 54809U 22175BD  24041.55745303 -.00000289  00000-0 -96450-7 0  9998,2 54809  53.2160 192.0627 0001343  82.9345 277.1800 15.08838001 65688,6917.886,95.438,540.681,538.822,0.0
54809.0,STARLINK-5414,PAYLOAD,2024-02-10 16:33:29,15.08840544,0.0001546,53.2175,191.4686,92.4271,267.6898,2.4287e-05,9.9e-07,0.0,0 STARLINK-5414,1 54809U 22175BD  24041.68993053  .00000099  00000-0  24287-4 0  9992,2 54809  53.2175 191.4686 0001546  92.4271 267.6898 15.08840544 65700,6917.879,95.438,540.813,538.674,0.0
54809.0,STARLINK-5414,PAYLOAD,2024-02-11 14:48:53,15.08838843,0.00016,53.2177,187.3066,102.7277,257.3894,9.8962e-05,1.287e-05,0.0,0 STARLINK-5414,1 54809U 22175BD  24042.61728930  .00001287  00000-0  98962-4 0  9997,2 54809  53.2177 187.3066 0001600 102.7277 257.3894 15.08838843 65846,6917.884,95.438,540.856,538.642,0.0
54809.0,STARLINK-5414,PAYLOAD,2024-02-11 16:24:16,15.08840615,0.000163,53.2179,187.0093,103.1529,256.9645,0.00011236,1.501e-05,0.0,0 STARLINK-5414,1 54809U 22175BD  24042.68352795  .00001501  00000-0  11236-3 0  9993,2 54809  53.2179 187.0093 0001630 103.1529 256.9645 15.08840615 63693,6917.879,95.438,540.871,538.616,0.0
